{"type": "FeatureCollection", "features": [ {"type": "Feature", "properties": {"norad_id": 66924, "name": "CZ-8A R/B", "group": "last-30-days", "lat": -38.807340251246515, "lon": -3.99600575418587, "alt_km": 861.7498107781466, "timestamp": "2025-12-08T15:42:48.538312+00:00", "meta": {"OBJECT_NAME": "CZ-8A R/B", "OBJECT_ID": "2025-285K", "EPOCH": "2025-12-06T12:19:51.036960", "MEAN_MOTION": 14.30448863, "ECCENTRICITY": 0.0118852, "INCLINATION": 50.0062, "RA_OF_ASC_NODE": 142.6566, "ARG_OF_PERICENTER": 84.4915, "MEAN_ANOMALY": 276.9544, "EPHEMERIS_TYPE": 0, "CLASSIFICATION_TYPE": "U", "NORAD_CAT_ID": 66924, "ELEMENT_SET_NO": 999, "REV_AT_EPOCH": 3, "BSTAR": 2.573e-05, "MEAN_MOTION_DOT": -9.5e-07, "MEAN_MOTION_DDOT": 0}, "tle": {"line1": "1 66924U 25285K   25340.51378515 -.00000095  00000+0  25730-4 0  9993", "line2": "2 66924  50.0062 142.6566 0118852  84.4915 276.9544 14.30448863    39"}}, "geometry": {"type": "Point", "coordinates": [-3.99600575418587, -38.807340251246515]}}]}